{
    "week": 296,
    "satellites": [
        {
            "Name": "GSAT0101 (GALILEO-PFM)",
            "Line1": "1 37846U 11060A   24343.35234951 -.00000063  00000+0  00000+0 0  9992",
            "Line2": "2 37846  57.1200 356.8223 0002616 311.4458  48.5732  1.70475630 81646",
            "SatelliteNumber": "37846",
            "Classification": "U",
            "LaunchYear": "11",
            "LaunchNumber": "060",
            "PieceOfLaunch": "A",
            "EpochYear": "24",
            "EpochDay": 343.35234951,
            "FirstDerivativeMeanMotion": -6.3e-07,
            "SecondDerivativeMeanMotion": "00000+0",
            "BSTAR": "00000+0",
            "SetNumber": "999",
            "Inclination": 57.12,
            "RAAN": 356.8223,
            "Eccentricity": 0.0002616,
            "ArgumentOfPerigee": 311.4458,
            "MeanAnomaly": 48.5732,
            "MeanMotion": 1.7047563,
            "RevolutionNumber": "8164"
        },
        {
            "Name": "GSAT0102 (GALILEO-FM2)",
            "Line1": "1 37847U 11060B   24343.27132628 -.00000063  00000+0  00000+0 0  9992",
            "Line2": "2 37847  57.1207 356.8247 0004628 304.9247  50.7349  1.70475136 81761",
            "SatelliteNumber": "37847",
            "Classification": "U",
            "LaunchYear": "11",
            "LaunchNumber": "060",
            "PieceOfLaunch": "B",
            "EpochYear": "24",
            "EpochDay": 343.27132628,
            "FirstDerivativeMeanMotion": -6.3e-07,
            "SecondDerivativeMeanMotion": "00000+0",
            "BSTAR": "00000+0",
            "SetNumber": "999",
            "Inclination": 57.1207,
            "RAAN": 356.8247,
            "Eccentricity": 0.0004628,
            "ArgumentOfPerigee": 304.9247,
            "MeanAnomaly": 50.7349,
            "MeanMotion": 1.70475136,
            "RevolutionNumber": "8176"
        },
        {
            "Name": "GSAT0103 (GALILEO-FM3)",
            "Line1": "1 38857U 12055A   24342.80517908  .00000054  00000+0  00000+0 0  9994",
            "Line2": "2 38857  55.4903 116.8328 0002649 251.1519 108.7940  1.70473347 75527",
            "SatelliteNumber": "38857",
            "Classification": "U",
            "LaunchYear": "12",
            "LaunchNumber": "055",
            "PieceOfLaunch": "A",
            "EpochYear": "24",
            "EpochDay": 342.80517908,
            "FirstDerivativeMeanMotion": 5.4e-07,
            "SecondDerivativeMeanMotion": "00000+0",
            "BSTAR": "00000+0",
            "SetNumber": "999",
            "Inclination": 55.4903,
            "RAAN": 116.8328,
            "Eccentricity": 0.0002649,
            "ArgumentOfPerigee": 251.1519,
            "MeanAnomaly": 108.794,
            "MeanMotion": 1.70473347,
            "RevolutionNumber": "7552"
        },
        {
            "Name": "GSAT0201 (GALILEO 5)",
            "Line1": "1 40128U 14050A   24343.18152329 -.00000061  00000+0  00000+0 0  9998",
            "Line2": "2 40128  49.4783 296.0563 1615887 158.0038 209.8333  1.85519470 68006",
            "SatelliteNumber": "40128",
            "Classification": "U",
            "LaunchYear": "14",
            "LaunchNumber": "050",
            "PieceOfLaunch": "A",
            "EpochYear": "24",
            "EpochDay": 343.18152329,
            "FirstDerivativeMeanMotion": -6.1e-07,
            "SecondDerivativeMeanMotion": "00000+0",
            "BSTAR": "00000+0",
            "SetNumber": "999",
            "Inclination": 49.4783,
            "RAAN": 296.0563,
            "Eccentricity": 0.1615887,
            "ArgumentOfPerigee": 158.0038,
            "MeanAnomaly": 209.8333,
            "MeanMotion": 1.8551947,
            "RevolutionNumber": "6800"
        },
        {
            "Name": "GSAT0202 (GALILEO 6)",
            "Line1": "1 40129U 14050B   24341.28321336 -.00000048  00000+0  00000+0 0  9999",
            "Line2": "2 40129  49.4966 295.2122 1615195 158.7201 208.8799  1.85520234 70102",
            "SatelliteNumber": "40129",
            "Classification": "U",
            "LaunchYear": "14",
            "LaunchNumber": "050",
            "PieceOfLaunch": "B",
            "EpochYear": "24",
            "EpochDay": 341.28321336,
            "FirstDerivativeMeanMotion": -4.8e-07,
            "SecondDerivativeMeanMotion": "00000+0",
            "BSTAR": "00000+0",
            "SetNumber": "999",
            "Inclination": 49.4966,
            "RAAN": 295.2122,
            "Eccentricity": 0.1615195,
            "ArgumentOfPerigee": 158.7201,
            "MeanAnomaly": 208.8799,
            "MeanMotion": 1.85520234,
            "RevolutionNumber": "7010"
        },
        {
            "Name": "GSAT0203 (GALILEO 7)",
            "Line1": "1 40544U 15017A   24342.54456982 -.00000062  00000+0  00000+0 0  9996",
            "Line2": "2 40544  56.9147 356.7546 0006136 265.0483  94.9232  1.70475917 59713",
            "SatelliteNumber": "40544",
            "Classification": "U",
            "LaunchYear": "15",
            "LaunchNumber": "017",
            "PieceOfLaunch": "A",
            "EpochYear": "24",
            "EpochDay": 342.54456982,
            "FirstDerivativeMeanMotion": -6.2e-07,
            "SecondDerivativeMeanMotion": "00000+0",
            "BSTAR": "00000+0",
            "SetNumber": "999",
            "Inclination": 56.9147,
            "RAAN": 356.7546,
            "Eccentricity": 0.0006136,
            "ArgumentOfPerigee": 265.0483,
            "MeanAnomaly": 94.9232,
            "MeanMotion": 1.70475917,
            "RevolutionNumber": "5971"
        },
        {
            "Name": "GSAT0204 (GALILEO 8)",
            "Line1": "1 40545U 15017B   24342.79924041 -.00000063  00000+0  00000+0 0  9991",
            "Line2": "2 40545  56.9210 356.7639 0005878 255.6648 104.3114  1.70475522 22760",
            "SatelliteNumber": "40545",
            "Classification": "U",
            "LaunchYear": "15",
            "LaunchNumber": "017",
            "PieceOfLaunch": "B",
            "EpochYear": "24",
            "EpochDay": 342.79924041,
            "FirstDerivativeMeanMotion": -6.3e-07,
            "SecondDerivativeMeanMotion": "00000+0",
            "BSTAR": "00000+0",
            "SetNumber": "999",
            "Inclination": 56.921,
            "RAAN": 356.7639,
            "Eccentricity": 0.0005878,
            "ArgumentOfPerigee": 255.6648,
            "MeanAnomaly": 104.3114,
            "MeanMotion": 1.70475522,
            "RevolutionNumber": "2276"
        },
        {
            "Name": "GSAT0205 (GALILEO 9)",
            "Line1": "1 40889U 15045A   24341.39465604  .00000030  00000+0  00000+0 0  9996",
            "Line2": "2 40889  55.1423 237.0145 0005734  34.4781 325.6409  1.70472919 57505",
            "SatelliteNumber": "40889",
            "Classification": "U",
            "LaunchYear": "15",
            "LaunchNumber": "045",
            "PieceOfLaunch": "A",
            "EpochYear": "24",
            "EpochDay": 341.39465604,
            "FirstDerivativeMeanMotion": 3e-07,
            "SecondDerivativeMeanMotion": "00000+0",
            "BSTAR": "00000+0",
            "SetNumber": "999",
            "Inclination": 55.1423,
            "RAAN": 237.0145,
            "Eccentricity": 0.0005734,
            "ArgumentOfPerigee": 34.4781,
            "MeanAnomaly": 325.6409,
            "MeanMotion": 1.70472919,
            "RevolutionNumber": "5750"
        },
        {
            "Name": "GSAT0206 (GALILEO 10)",
            "Line1": "1 40890U 15045B   24343.37503223  .00000021  00000+0  00000+0 0  9998",
            "Line2": "2 40890  55.1404 236.9549 0003684  31.4866 328.6088  1.70472924 57563",
            "SatelliteNumber": "40890",
            "Classification": "U",
            "LaunchYear": "15",
            "LaunchNumber": "045",
            "PieceOfLaunch": "B",
            "EpochYear": "24",
            "EpochDay": 343.37503223,
            "FirstDerivativeMeanMotion": 2.1e-07,
            "SecondDerivativeMeanMotion": "00000+0",
            "BSTAR": "00000+0",
            "SetNumber": "999",
            "Inclination": 55.1404,
            "RAAN": 236.9549,
            "Eccentricity": 0.0003684,
            "ArgumentOfPerigee": 31.4866,
            "MeanAnomaly": 328.6088,
            "MeanMotion": 1.70472924,
            "RevolutionNumber": "5756"
        },
        {
            "Name": "GSAT0209 (GALILEO 12)",
            "Line1": "1 41174U 15079A   24342.95752126  .00000054  00000+0  00000+0 0  9998",
            "Line2": "2 41174  55.5095 116.5394 0001926 341.0041  18.9634  1.70474367 55299",
            "SatelliteNumber": "41174",
            "Classification": "U",
            "LaunchYear": "15",
            "LaunchNumber": "079",
            "PieceOfLaunch": "A",
            "EpochYear": "24",
            "EpochDay": 342.95752126,
            "FirstDerivativeMeanMotion": 5.4e-07,
            "SecondDerivativeMeanMotion": "00000+0",
            "BSTAR": "00000+0",
            "SetNumber": "999",
            "Inclination": 55.5095,
            "RAAN": 116.5394,
            "Eccentricity": 0.0001926,
            "ArgumentOfPerigee": 341.0041,
            "MeanAnomaly": 18.9634,
            "MeanMotion": 1.70474367,
            "RevolutionNumber": "5529"
        }
    ]
}